{
  "type": "FeatureCollection",
  "features": [
    {
      "type": "Feature",
      "properties": {
        "norad_id": 66864,
        "name": "STARLINK-36070",
        "group": "last-30-days",
        "lat": -36.64374876953961,
        "lon": 26.662174424893003,
        "alt_km": 346.87535813669274,
        "timestamp": "2025-12-19T16:54:42.968872+00:00",
        "meta_object_name": "STARLINK-36070",
        "meta_object_id": "2025-281S",
        "meta_epoch": "2025-12-19T06:00:02.000160",
        "meta_mean_motion": 15.7512488,
        "meta_eccentricity": 0.00014494,
        "meta_inclination": 43.0008,
        "meta_ra_of_asc_node": 82.3838,
        "meta_arg_of_pericenter": 263.2983,
        "meta_mean_anomaly": 334.5721,
        "meta_ephemeris_type": 0,
        "meta_classification_type": "U",
        "meta_norad_cat_id": 66864,
        "meta_element_set_no": 999,
        "meta_rev_at_epoch": 247,
        "meta_bstar": -0.00093427552,
        "meta_mean_motion_dot": -0.00142131,
        "meta_mean_motion_ddot": 0,
        "tle_line1": "1 66864U 25281S   25353.25002315 -.00142131  00000+0 -93428-3 0  9996",
        "tle_line2": "2 66864  43.0008  82.3838 0001449 263.2983 334.5721 15.75124880  2479"
      },
      "geometry": {
        "type": "Point",
        "coordinates": [
          26.662174424893003,
          -36.64374876953961
        ]
      }
    },
    {
      "type": "Feature",
      "properties": {
        "norad_id": 66865,
        "name": "STARLINK-36117",
        "group": "last-30-days",
        "lat": -35.00095219387301,
        "lon": 30.900999979395944,
        "alt_km": 346.60987231125,
        "timestamp": "2025-12-19T16:54:42.968884+00:00",
        "meta_object_name": "STARLINK-36117",
        "meta_object_id": "2025-281T",
        "meta_epoch": "2025-12-19T06:00:02.000160",
        "meta_mean_motion": 15.7506425,
        "meta_eccentricity": 0.00015316,
        "meta_inclination": 43.0007,
        "meta_ra_of_asc_node": 82.375,
        "meta_arg_of_pericenter": 270.8061,
        "meta_mean_anomaly": 330.9018,
        "meta_ephemeris_type": 0,
        "meta_classification_type": "U",
        "meta_norad_cat_id": 66865,
        "meta_element_set_no": 999,
        "meta_rev_at_epoch": 244,
        "meta_bstar": -0.00021001854,
        "meta_mean_motion_dot": -0.00032649,
        "meta_mean_motion_ddot": 0,
        "tle_line1": "1 66865U 25281T   25353.25002315 -.00032649  00000+0 -21002-3 0  9998",
        "tle_line2": "2 66865  43.0007  82.3750 0001531 270.8061 330.9018 15.75064250  2445"
      },
      "geometry": {
        "type": "Point",
        "coordinates": [
          30.900999979395944,
          -35.00095219387301
        ]
      }
    },
    {
      "type": "Feature",
      "properties": {
        "norad_id": 66866,
        "name": "STARLINK-36126",
        "group": "last-30-days",
        "lat": -34.121215866813536,
        "lon": 32.96385930103067,
        "alt_km": 346.5973337699743,
        "timestamp": "2025-12-19T16:54:42.968894+00:00",
        "meta_object_name": "STARLINK-36126",
        "meta_object_id": "2025-281U",
        "meta_epoch": "2025-12-19T06:00:02.000160",
        "meta_mean_motion": 15.75051867,
        "meta_eccentricity": 0.00016383,
        "meta_inclination": 43.0007,
        "meta_ra_of_asc_node": 82.37,
        "meta_arg_of_pericenter": 263.0086,
        "meta_mean_anomaly": 340.6231,
        "meta_ephemeris_type": 0,
        "meta_classification_type": "U",
        "meta_norad_cat_id": 66866,
        "meta_element_set_no": 999,
        "meta_rev_at_epoch": 247,
        "meta_bstar": -0.00010126229,
        "meta_mean_motion_dot": -0.00016012,
        "meta_mean_motion_ddot": 0,
        "tle_line1": "1 66866U 25281U   25353.25002315 -.00016012  00000+0 -10126-3 0  9990",
        "tle_line2": "2 66866  43.0007  82.3700 0001638 263.0086 340.6231 15.75051867  2478"
      },
      "geometry": {
        "type": "Point",
        "coordinates": [
          32.96385930103067,
          -34.121215866813536
        ]
      }
    },
    {
      "type": "Feature",
      "properties": {
        "norad_id": 66867,
        "name": "STARLINK-36101",
        "group": "last-30-days",
        "lat": -33.20841702692616,
        "lon": 34.98142172834294,
        "alt_km": 346.6706240209505,
        "timestamp": "2025-12-19T16:54:42.968904+00:00",
        "meta_object_name": "STARLINK-36101",
        "meta_object_id": "2025-281V",
        "meta_epoch": "2025-12-19T06:00:02.000160",
        "meta_mean_motion": 15.75078597,
        "meta_eccentricity": 0.00014812,
        "meta_inclination": 43.0007,
        "meta_ra_of_asc_node": 82.365,
        "meta_arg_of_pericenter": 265.7412,
        "meta_mean_anomaly": 339.8037,
        "meta_ephemeris_type": 0,
        "meta_classification_type": "U",
        "meta_norad_cat_id": 66867,
        "meta_element_set_no": 999,
        "meta_rev_at_epoch": 228,
        "meta_bstar": -0.00043743337,
        "meta_mean_motion_dot": -0.00067253,
        "meta_mean_motion_ddot": 0,
        "tle_line1": "1 66867U 25281V   25353.25002315 -.00067253  00000+0 -43743-3 0  9995",
        "tle_line2": "2 66867  43.0007  82.3650 0001481 265.7412 339.8037 15.75078597  2283"
      },
      "geometry": {
        "type": "Point",
        "coordinates": [
          34.98142172834294,
          -33.20841702692616
        ]
      }
    },
    {
      "type": "Feature",
      "properties": {
        "norad_id": 66868,
        "name": "STARLINK-36108",
        "group": "last-30-days",
        "lat": -32.26613913134749,
        "lon": 36.951327185883216,
        "alt_km": 346.61213402276735,
        "timestamp": "2025-12-19T16:54:42.968934+00:00",
        "meta_object_name": "STARLINK-36108",
        "meta_object_id": "2025-281W",
        "meta_epoch": "2025-12-19T06:00:02.000160",
        "meta_mean_motion": 15.75063571,
        "meta_eccentricity": 0.00015469,
        "meta_inclination": 43.0007,
        "meta_ra_of_asc_node": 82.36,
        "meta_arg_of_pericenter": 263.1383,
        "meta_mean_anomaly": 344.3221,
        "meta_ephemeris_type": 0,
        "meta_classification_type": "U",
        "meta_norad_cat_id": 66868,
        "meta_element_set_no": 999,
        "meta_rev_at_epoch": 228,
        "meta_bstar": -0.000264751,
        "meta_mean_motion_dot": -0.00040992,
        "meta_mean_motion_ddot": 0,
        "tle_line1": "1 66868U 25281W   25353.25002315 -.00040992  00000+0 -26475-3 0  9990",
        "tle_line2": "2 66868  43.0007  82.3600 0001546 263.1383 344.3221 15.75063571  2282"
      },
      "geometry": {
        "type": "Point",
        "coordinates": [
          36.951327185883216,
          -32.26613913134749
        ]
      }
    },
    {
      "type": "Feature",
      "properties": {
        "norad_id": 66869,
        "name": "STARLINK-36092",
        "group": "last-30-days",
        "lat": -31.290580350372224,
        "lon": 38.88610728081071,
        "alt_km": 346.6689575266437,
        "timestamp": "2025-12-19T16:54:42.968946+00:00",
        "meta_object_name": "STARLINK-36092",
        "meta_object_id": "2025-281X",
        "meta_epoch": "2025-12-19T06:00:02.000160",
        "meta_mean_motion": 15.75047343,
        "meta_eccentricity": 0.00015104,
        "meta_inclination": 43.0007,
        "meta_ra_of_asc_node": 82.3549,
        "meta_arg_of_pericenter": 256.7764,
        "meta_mean_anomaly": 352.6107,
        "meta_ephemeris_type": 0,
        "meta_classification_type": "U",
        "meta_norad_cat_id": 66869,
        "meta_element_set_no": 999,
        "meta_rev_at_epoch": 247,
        "meta_bstar": -0.00011850243,
        "meta_mean_motion_dot": -0.00018647,
        "meta_mean_motion_ddot": 0,
        "tle_line1": "1 66869U 25281X   25353.25002315 -.00018647  00000+0 -11850-3 0  9994",
        "tle_line2": "2 66869  43.0007  82.3549 0001510 256.7764 352.6107 15.75047343  2472"
      },
      "geometry": {
        "type": "Point",
        "coordinates": [
          38.88610728081071,
          -31.290580350372224
        ]
      }
    },
    {
      "type": "Feature",
      "properties": {
        "norad_id": 66870,
        "name": "STARLINK-36114",
        "group": "last-30-days",
        "lat": -30.287167983837715,
        "lon": 40.780253810740646,
        "alt_km": 346.4536047735146,
        "timestamp": "2025-12-19T16:54:42.968956+00:00",
        "meta_object_name": "STARLINK-36114",
        "meta_object_id": "2025-281Y",
        "meta_epoch": "2025-12-19T06:00:02.000160",
        "meta_mean_motion": 15.75035081,
        "meta_eccentricity": 0.00015232,
        "meta_inclination": 43.0013,
        "meta_ra_of_asc_node": 82.3498,
        "meta_arg_of_pericenter": 266.0768,
        "meta_mean_anomaly": 345.2235,
        "meta_ephemeris_type": 0,
        "meta_classification_type": "U",
        "meta_norad_cat_id": 66870,
        "meta_element_set_no": 999,
        "meta_rev_at_epoch": 234,
        "meta_bstar": 0.00010923217,
        "meta_mean_motion_dot": 0.00016331,
        "meta_mean_motion_ddot": 0,
        "tle_line1": "1 66870U 25281Y   25353.25002315  .00016331  00000+0  10923-3 0  9992",
        "tle_line2": "2 66870  43.0013  82.3498 0001523 266.0768 345.2235 15.75035081  2348"
      },
      "geometry": {
        "type": "Point",
        "coordinates": [
          40.780253810740646,
          -30.287167983837715
        ]
      }
    }
  ]
}